[
    {
        "Altitude(m)": 612502.2404059797,
        "Argument of Periapsis(deg)": 0.0,
        "Eccentricity": 0.0,
        "Inclination(deg)": 60.0,
        "Latitude(deg)": -28.13612132751422,
        "Longitude(deg)": -32.85170918384858,
        "Mean Anomaly(deg)": -32.72730000000001,
        "RAAN(deg)": 85.00000000000001,
        "Satellite Name": "Test1 394",
        "Satellite Number": 394,
        "Semi-Major Axis(m)": 6980739.136638005,
        "Time(s)": 0
    },
    {
        "Altitude(m)": 612308.687590278,
        "Argument of Periapsis(deg)": 0.00010418945913296404,
        "Eccentricity": 0.0,
        "Inclination(deg)": 60.0,
        "Latitude(deg)": -27.623176160478813,
        "Longitude(deg)": -32.49823544928158,
        "Mean Anomaly(deg)": -32.10719385453817,
        "RAAN(deg)": 84.99957995086027,
        "Satellite Name": "Test1 394",
        "Satellite Number": 394,
        "Semi-Major Axis(m)": 6980739.136638005,
        "Time(s)": 10
    }
]